{"type": "FeatureCollection", "features": [ {"type": "Feature", "properties": {"norad_id": 66599, "name": "STARLINK-35930", "group": "last-30-days", "lat": 42.73260548596491, "lon": -89.82691949229242, "alt_km": 407.99146344791643, "timestamp": "2025-12-16T03:53:25.815940+00:00", "meta": {"OBJECT_NAME": "STARLINK-35930", "OBJECT_ID": "2025-270M", "EPOCH": "2025-12-15T05:50:20.078016", "MEAN_MOTION": 15.50605229, "ECCENTRICITY": 4.876e-05, "INCLINATION": 42.9988, "RA_OF_ASC_NODE": 178.0452, "ARG_OF_PERICENTER": 253.3544, "MEAN_ANOMALY": 106.7263, "EPHEMERIS_TYPE": 0, "CLASSIFICATION_TYPE": "U", "NORAD_CAT_ID": 66599, "ELEMENT_SET_NO": 999, "REV_AT_EPOCH": 473, "BSTAR": 0.0015226275, "MEAN_MOTION_DOT": 0.00090102, "MEAN_MOTION_DDOT": 0}, "tle": {"line1": "1 66599U 25270M   25349.24328794  .00090102  00000+0  15226-2 0  9992", "line2": "2 66599  42.9988 178.0452 0000487 253.3544 106.7263 15.50605229  4733"}}, "geometry": {"type": "Point", "coordinates": [-89.82691949229242, 42.73260548596491]}}, {"type": "Feature", "properties": {"norad_id": 66600, "name": "STARLINK-35980", "group": "last-30-days", "lat": 42.541670696420155, "lon": -87.34612718221209, "alt_km": 409.7452518916971, "timestamp": "2025-12-16T03:53:25.815951+00:00", "meta": {"OBJECT_NAME": "STARLINK-35980", "OBJECT_ID": "2025-270N", "EPOCH": "2025-12-15T05:49:49.946016", "MEAN_MOTION": 15.50599957, "ECCENTRICITY": 0.00028037, "INCLINATION": 42.9985, "RA_OF_ASC_NODE": 178.0419, "ARG_OF_PERICENTER": 273.1309, "MEAN_ANOMALY": 86.923, "EPHEMERIS_TYPE": 0, "CLASSIFICATION_TYPE": "U", "NORAD_CAT_ID": 66600, "ELEMENT_SET_NO": 999, "REV_AT_EPOCH": 463, "BSTAR": 0.0011246255, "MEAN_MOTION_DOT": 0.0006625, "MEAN_MOTION_DDOT": 0}, "tle": {"line1": "1 66600U 25270N   25349.24293919  .00066250  00000+0  11246-2 0  9990", "line2": "2 66600  42.9985 178.0419 0002803 273.1309  86.9230 15.50599957  4631"}}, "geometry": {"type": "Point", "coordinates": [-87.34612718221209, 42.541670696420155]}}, {"type": "Feature", "properties": {"norad_id": 66601, "name": "STARLINK-35978", "group": "last-30-days", "lat": 30.451855208278957, "lon": -148.0979806042241, "alt_km": 444.81494113984536, "timestamp": "2025-12-16T03:53:25.815962+00:00", "meta": {"OBJECT_NAME": "STARLINK-35978", "OBJECT_ID": "2025-270P", "EPOCH": "2025-12-15T08:00:01.999872", "MEAN_MOTION": 15.43227422, "ECCENTRICITY": 9.289e-05, "INCLINATION": 42.9999, "RA_OF_ASC_NODE": 177.5642, "ARG_OF_PERICENTER": 257.4899, "MEAN_ANOMALY": 227.0944, "EPHEMERIS_TYPE": 0, "CLASSIFICATION_TYPE": "U", "NORAD_CAT_ID": 66601, "ELEMENT_SET_NO": 999, "REV_AT_EPOCH": 465, "BSTAR": -0.057725303, "MEAN_MOTION_DOT": -0.02340123, "MEAN_MOTION_DDOT": 0}, "tle": {"line1": "1 66601U 25270P   25349.33335648 -.02340123  00000+0 -57725-1 0  9996", "line2": "2 66601  42.9999 177.5642 0000928 257.4899 227.0944 15.43227422  4653"}}, "geometry": {"type": "Point", "coordinates": [-148.0979806042241, 30.451855208278957]}}, {"type": "Feature", "properties": {"norad_id": 66602, "name": "STARLINK-36050", "group": "last-30-days", "lat": -17.22184510029378, "lon": 153.5319714090035, "alt_km": 445.3671684958763, "timestamp": "2025-12-16T03:53:25.815973+00:00", "meta": {"OBJECT_NAME": "STARLINK-36050", "OBJECT_ID": "2025-270Q", "EPOCH": "2025-12-15T08:00:01.999872", "MEAN_MOTION": 15.40691298, "ECCENTRICITY": 0.00019385, "INCLINATION": 42.9997, "RA_OF_ASC_NODE": 177.7381, "ARG_OF_PERICENTER": 251.7819, "MEAN_ANOMALY": 160.3774, "EPHEMERIS_TYPE": 0, "CLASSIFICATION_TYPE": "U", "NORAD_CAT_ID": 66602, "ELEMENT_SET_NO": 999, "REV_AT_EPOCH": 471, "BSTAR": 0.00053491857, "MEAN_MOTION_DOT": 0.000221, "MEAN_MOTION_DDOT": 0}, "tle": {"line1": "1 66602U 25270Q   25349.33335648  .00022100  00000+0  53492-3 0  9994", "line2": "2 66602  42.9997 177.7381 0001938 251.7819 160.3774 15.40691298  4715"}}, "geometry": {"type": "Point", "coordinates": [153.5319714090035, -17.22184510029378]}}, {"type": "Feature", "properties": {"norad_id": 66603, "name": "STARLINK-36048", "group": "last-30-days", "lat": 42.43448711741652, "lon": -86.1900824797069, "alt_km": 414.0603790434243, "timestamp": "2025-12-16T03:53:25.815983+00:00", "meta": {"OBJECT_NAME": "STARLINK-36048", "OBJECT_ID": "2025-270R", "EPOCH": "2025-12-14T20:31:57.468000", "MEAN_MOTION": 15.4998209, "ECCENTRICITY": 0.00036397, "INCLINATION": 42.9992, "RA_OF_ASC_NODE": 180.2932, "ARG_OF_PERICENTER": 268.8194, "MEAN_ANOMALY": 91.2249, "EPHEMERIS_TYPE": 0, "CLASSIFICATION_TYPE": "U", "NORAD_CAT_ID": 66603, "ELEMENT_SET_NO": 999, "REV_AT_EPOCH": 457, "BSTAR": -0.0034237355, "MEAN_MOTION_DOT": -0.00192289, "MEAN_MOTION_DDOT": 0}, "tle": {"line1": "1 66603U 25270R   25348.85552625 -.00192289  00000+0 -34237-2 0  9990", "line2": "2 66603  42.9992 180.2932 0003639 268.8194  91.2249 15.49982090  4572"}}, "geometry": {"type": "Point", "coordinates": [-86.1900824797069, 42.43448711741652]}}, {"type": "Feature", "properties": {"norad_id": 66604, "name": "STARLINK-35977", "group": "last-30-days", "lat": 41.200281346035055, "lon": -77.324001671653, "alt_km": 409.1348177129539, "timestamp": "2025-12-16T03:53:25.815994+00:00", "meta": {"OBJECT_NAME": "STARLINK-35977", "OBJECT_ID": "2025-270S", "EPOCH": "2025-12-15T05:47:51.952128", "MEAN_MOTION": 15.50594552, "ECCENTRICITY": 0.00014478, "INCLINATION": 42.9989, "RA_OF_ASC_NODE": 178.0309, "ARG_OF_PERICENTER": 284.8784, "MEAN_ANOMALY": 75.1916, "EPHEMERIS_TYPE": 0, "CLASSIFICATION_TYPE": "U", "NORAD_CAT_ID": 66604, "ELEMENT_SET_NO": 999, "REV_AT_EPOCH": 473, "BSTAR": 0.00084362823, "MEAN_MOTION_DOT": 0.00049491, "MEAN_MOTION_DDOT": 0}, "tle": {"line1": "1 66604U 25270S   25349.24157352  .00049491  00000+0  84363-3 0  9993", "line2": "2 66604  42.9989 178.0309 0001447 284.8784  75.1916 15.50594552  4734"}}, "geometry": {"type": "Point", "coordinates": [-77.324001671653, 41.200281346035055]}}, {"type": "Feature", "properties": {"norad_id": 66605, "name": "STARLINK-36052", "group": "last-30-days", "lat": 40.70611094133901, "lon": -74.77046996786301, "alt_km": 408.95513480837053, "timestamp": "2025-12-16T03:53:25.816006+00:00", "meta": {"OBJECT_NAME": "STARLINK-36052", "OBJECT_ID": "2025-270T", "EPOCH": "2025-12-15T05:47:22.095744", "MEAN_MOTION": 15.50597887, "ECCENTRICITY": 0.00012483, "INCLINATION": 42.9988, "RA_OF_ASC_NODE": 178.0285, "ARG_OF_PERICENTER": 267.4948, "MEAN_ANOMALY": 92.577, "EPHEMERIS_TYPE": 0, "CLASSIFICATION_TYPE": "U", "NORAD_CAT_ID": 66605, "ELEMENT_SET_NO": 999, "REV_AT_EPOCH": 473, "BSTAR": 0.0011327433, "MEAN_MOTION_DOT": 0.00066724, "MEAN_MOTION_DDOT": 0}, "tle": {"line1": "1 66605U 25270T   25349.24122796  .00066724  00000+0  11327-2 0  9995", "line2": "2 66605  42.9988 178.0285 0001248 267.4948  92.5770 15.50597887  4730"}}, "geometry": {"type": "Point", "coordinates": [-74.77046996786301, 40.70611094133901]}}, {"type": "Feature", "properties": {"norad_id": 66606, "name": "STARLINK-36063", "group": "last-30-days", "lat": 39.619215547013894, "lon": -70.04499709705676, "alt_km": 409.45215018552335, "timestamp": "2025-12-16T03:53:25.816017+00:00", "meta": {"OBJECT_NAME": "STARLINK-36063", "OBJECT_ID": "2025-270U", "EPOCH": "2025-12-15T05:46:22.690560", "MEAN_MOTION": 15.50593862, "ECCENTRICITY": 0.00016024, "INCLINATION": 42.9989, "RA_OF_ASC_NODE": 178.0222, "ARG_OF_PERICENTER": 269.3517, "MEAN_ANOMALY": 90.7159, "EPHEMERIS_TYPE": 0, "CLASSIFICATION_TYPE": "U", "NORAD_CAT_ID": 66606, "ELEMENT_SET_NO": 999, "REV_AT_EPOCH": 473, "BSTAR": 0.00085172846, "MEAN_MOTION_DOT": 0.00049972, "MEAN_MOTION_DDOT": 0}, "tle": {"line1": "1 66606U 25270U   25349.24054040  .00049972  00000+0  85173-3 0  9999", "line2": "2 66606  42.9989 178.0222 0001602 269.3517  90.7159 15.50593862  4730"}}, "geometry": {"type": "Point", "coordinates": [-70.04499709705676, 39.619215547013894]}}, {"type": "Feature", "properties": {"norad_id": 66607, "name": "STARLINK-35993", "group": "last-30-days", "lat": 40.17326562161576, "lon": -72.32874593642157, "alt_km": 409.12654763825594, "timestamp": "2025-12-16T03:53:25.816027+00:00", "meta": {"OBJECT_NAME": "STARLINK-35993", "OBJECT_ID": "2025-270V", "EPOCH": "2025-12-15T05:46:52.452768", "MEAN_MOTION": 15.50599893, "ECCENTRICITY": 0.00014705, "INCLINATION": 42.9991, "RA_OF_ASC_NODE": 178.0256, "ARG_OF_PERICENTER": 264.0151, "MEAN_ANOMALY": 96.0542, "EPHEMERIS_TYPE": 0, "CLASSIFICATION_TYPE": "U", "NORAD_CAT_ID": 66607, "ELEMENT_SET_NO": 999, "REV_AT_EPOCH": 463, "BSTAR": 0.0012134027, "MEAN_MOTION_DOT": 0.0007155, "MEAN_MOTION_DDOT": 0}, "tle": {"line1": "1 66607U 25270V   25349.24088487  .00071550  00000+0  12134-2 0  9995", "line2": "2 66607  42.9991 178.0256 0001470 264.0151  96.0542 15.50599893  4634"}}, "geometry": {"type": "Point", "coordinates": [-72.32874593642157, 40.17326562161576]}}, {"type": "Feature", "properties": {"norad_id": 66608, "name": "STARLINK-36036", "group": "last-30-days", "lat": 38.9810360791641, "lon": -67.65410730751819, "alt_km": 409.41981440577274, "timestamp": "2025-12-16T03:53:25.816039+00:00", "meta": {"OBJECT_NAME": "STARLINK-36036", "OBJECT_ID": "2025-270W", "EPOCH": "2025-12-15T05:45:53.066592", "MEAN_MOTION": 15.50598473, "ECCENTRICITY": 0.00014992, "INCLINATION": 42.9989, "RA_OF_ASC_NODE": 178.0198, "ARG_OF_PERICENTER": 270.0346, "MEAN_ANOMALY": 90.0343, "EPHEMERIS_TYPE": 0, "CLASSIFICATION_TYPE": "U", "NORAD_CAT_ID": 66608, "ELEMENT_SET_NO": 999, "REV_AT_EPOCH": 457, "BSTAR": 0.00098919184, "MEAN_MOTION_DOT": 0.00058162, "MEAN_MOTION_DDOT": 0}, "tle": {"line1": "1 66608U 25270W   25349.24019753  .00058162  00000+0  98919-3 0  9996", "line2": "2 66608  42.9989 178.0198 0001499 270.0346  90.0343 15.50598473  4570"}}, "geometry": {"type": "Point", "coordinates": [-67.65410730751819, 38.9810360791641]}}]}